HIMAWARI-8              
1 40267U 14060A   24051.92655155 -.00000286  00000+0  00000+0 0  9995
2 40267   0.0449 237.0054 0001472 101.5427 285.9692  1.00271011 34262
